{
  "type": "FeatureCollection",
  "features": [
    {
      "type": "Feature",
      "properties": {
        "norad_id": 30243,
        "name": "FENGYUN 1C DEB",
        "group": "fengyun-1c-debris",
        "lat": -80.88843356987424,
        "lon": 105.04783916987354,
        "alt_km": 864.2717228528345,
        "timestamp": "2025-12-12T03:50:52.692053+00:00",
        "meta_object_name": "FENGYUN 1C DEB",
        "meta_object_id": "1999-025XC",
        "meta_epoch": "2025-12-11T12:02:17.337984",
        "meta_mean_motion": 14.13019353,
        "meta_eccentricity": 0.00130547,
        "meta_inclination": 98.6933,
        "meta_ra_of_asc_node": 356.9563,
        "meta_arg_of_pericenter": 122.3854,
        "meta_mean_anomaly": 35.7419,
        "meta_ephemeris_type": 0,
        "meta_classification_type": "U",
        "meta_norad_cat_id": 30243,
        "meta_element_set_no": 999,
        "meta_rev_at_epoch": 97261,
        "meta_bstar": 0.00058328121,
        "meta_mean_motion_dot": 1.046e-05,
        "meta_mean_motion_ddot": 0,
        "tle_line1": "1 30243U 99025XC  25345.50158956  .00001046  00000+0  58328-3 0  9994",
        "tle_line2": "2 30243  98.6933 356.9563 0013054 122.3854  35.7419 14.13019353972611"
      },
      "geometry": {
        "type": "Point",
        "coordinates": [
          105.04783916987354,
          -80.88843356987424
        ]
      }
    },
    {
      "type": "Feature",
      "properties": {
        "norad_id": 30244,
        "name": "FENGYUN 1C DEB",
        "group": "fengyun-1c-debris",
        "lat": 77.8298067965148,
        "lon": 104.10939630750634,
        "alt_km": 840.3557380818029,
        "timestamp": "2025-12-12T03:50:52.692063+00:00",
        "meta_object_name": "FENGYUN 1C DEB",
        "meta_object_id": "1999-025XD",
        "meta_epoch": "2025-12-11T04:23:45.845664",
        "meta_mean_motion": 14.15012034,
        "meta_eccentricity": 0.00096411,
        "meta_inclination": 99.1434,
        "meta_ra_of_asc_node": 234.7963,
        "meta_arg_of_pericenter": 319.6255,
        "meta_mean_anomaly": 203.3931,
        "meta_ephemeris_type": 0,
        "meta_classification_type": "U",
        "meta_norad_cat_id": 30244,
        "meta_element_set_no": 999,
        "meta_rev_at_epoch": 97324,
        "meta_bstar": 0.00058302126,
        "meta_mean_motion_dot": 1.082e-05,
        "meta_mean_motion_ddot": 0,
        "tle_line1": "1 30244U 99025XD  25345.18316951  .00001082  00000+0  58302-3 0  9992",
        "tle_line2": "2 30244  99.1434 234.7963 0009641 319.6255 203.3931 14.15012034973247"
      },
      "geometry": {
        "type": "Point",
        "coordinates": [
          104.10939630750634,
          77.8298067965148
        ]
      }
    },
    {
      "type": "Feature",
      "properties": {
        "norad_id": 30245,
        "name": "FENGYUN 1C DEB",
        "group": "fengyun-1c-debris",
        "lat": -44.19504218861249,
        "lon": -17.45181106982075,
        "alt_km": 906.4047256749936,
        "timestamp": "2025-12-12T03:50:52.692073+00:00",
        "meta_object_name": "FENGYUN 1C DEB",
        "meta_object_id": "1999-025XE",
        "meta_epoch": "2025-12-11T10:39:06.369408",
        "meta_mean_motion": 13.79063772,
        "meta_eccentricity": 0.01931398,
        "meta_inclination": 98.8892,
        "meta_ra_of_asc_node": 333.1234,
        "meta_arg_of_pericenter": 254.5153,
        "meta_mean_anomaly": 103.4598,
        "meta_ephemeris_type": 0,
        "meta_classification_type": "U",
        "meta_norad_cat_id": 30245,
        "meta_element_set_no": 999,
        "meta_rev_at_epoch": 94676,
        "meta_bstar": 0.0018023779,
        "meta_mean_motion_dot": 2.076e-05,
        "meta_mean_motion_ddot": 0,
        "tle_line1": "1 30245U 99025XE  25345.44382372  .00002076  00000+0  18024-2 0  9992",
        "tle_line2": "2 30245  98.8892 333.1234 0193139 254.5153 103.4598 13.79063772946767"
      },
      "geometry": {
        "type": "Point",
        "coordinates": [
          -17.45181106982075,
          -44.19504218861249
        ]
      }
    },
    {
      "type": "Feature",
      "properties": {
        "norad_id": 30246,
        "name": "FENGYUN 1C DEB",
        "group": "fengyun-1c-debris",
        "lat": 37.96138617556596,
        "lon": -43.242200655880254,
        "alt_km": 901.2002979006511,
        "timestamp": "2025-12-12T03:50:52.692083+00:00",
        "meta_object_name": "FENGYUN 1C DEB",
        "meta_object_id": "1999-025XF",
        "meta_epoch": "2025-12-11T09:20:34.130688",
        "meta_mean_motion": 13.37017926,
        "meta_eccentricity": 0.03706764,
        "meta_inclination": 98.673,
        "meta_ra_of_asc_node": 129.2603,
        "meta_arg_of_pericenter": 103.0963,
        "meta_mean_anomaly": 286.3275,
        "meta_ephemeris_type": 0,
        "meta_classification_type": "U",
        "meta_norad_cat_id": 30246,
        "meta_element_set_no": 999,
        "meta_rev_at_epoch": 92122,
        "meta_bstar": 0.00041800617,
        "meta_mean_motion_dot": 2.91e-06,
        "meta_mean_motion_ddot": 0,
        "tle_line1": "1 30246U 99025XF  25345.38928392  .00000291  00000+0  41801-3 0  9991",
        "tle_line2": "2 30246  98.6730 129.2603 0370676 103.0963 286.3275 13.37017926921222"
      },
      "geometry": {
        "type": "Point",
        "coordinates": [
          -43.242200655880254,
          37.96138617556596
        ]
      }
    },
    {
      "type": "Feature",
      "properties": {
        "norad_id": 30247,
        "name": "FENGYUN 1C DEB",
        "group": "fengyun-1c-debris",
        "lat": -51.10527600300198,
        "lon": -96.29170647805743,
        "alt_km": 605.3029134934968,
        "timestamp": "2025-12-12T03:50:52.692093+00:00",
        "meta_object_name": "FENGYUN 1C DEB",
        "meta_object_id": "1999-025XG",
        "meta_epoch": "2025-12-11T07:16:05.073600",
        "meta_mean_motion": 14.59085464,
        "meta_eccentricity": 0.01943746,
        "meta_inclination": 98.2758,
        "meta_ra_of_asc_node": 252.4592,
        "meta_arg_of_pericenter": 356.481,
        "meta_mean_anomaly": 131.693,
        "meta_ephemeris_type": 0,
        "meta_classification_type": "U",
        "meta_norad_cat_id": 30247,
        "meta_element_set_no": 999,
        "meta_rev_at_epoch": 97261,
        "meta_bstar": 0.0070169312,
        "meta_mean_motion_dot": 0.00043145,
        "meta_mean_motion_ddot": 0,
        "tle_line1": "1 30247U 99025XG  25345.30283650  .00043145  00000+0  70169-2 0  9998",
        "tle_line2": "2 30247  98.2758 252.4592 0194374 356.4810 131.6930 14.59085464972615"
      },
      "geometry": {
        "type": "Point",
        "coordinates": [
          -96.29170647805743,
          -51.10527600300198
        ]
      }
    },
    {
      "type": "Feature",
      "properties": {
        "norad_id": 30248,
        "name": "FENGYUN 1C DEB",
        "group": "fengyun-1c-debris",
        "lat": -15.635586155190522,
        "lon": 172.80000484961118,
        "alt_km": 720.7241127487241,
        "timestamp": "2025-12-12T03:50:52.692103+00:00",
        "meta_object_name": "FENGYUN 1C DEB",
        "meta_object_id": "1999-025XH",
        "meta_epoch": "2025-12-11T11:27:47.355552",
        "meta_mean_motion": 14.59109462,
        "meta_eccentricity": 0.00290598,
        "meta_inclination": 99.0999,
        "meta_ra_of_asc_node": 169.4814,
        "meta_arg_of_pericenter": 154.3791,
        "meta_mean_anomaly": 205.8853,
        "meta_ephemeris_type": 0,
        "meta_classification_type": "U",
        "meta_norad_cat_id": 30248,
        "meta_element_set_no": 999,
        "meta_rev_at_epoch": 97410,
        "meta_bstar": 0.008467698,
        "meta_mean_motion_dot": 0.00040266,
        "meta_mean_motion_ddot": 0,
        "tle_line1": "1 30248U 99025XH  25345.47763143  .00040266  00000+0  84677-2 0  9997",
        "tle_line2": "2 30248  99.0999 169.4814 0029059 154.3791 205.8853 14.59109462974105"
      },
      "geometry": {
        "type": "Point",
        "coordinates": [
          172.80000484961118,
          -15.635586155190522
        ]
      }
    },
    {
      "type": "Feature",
      "properties": {
        "norad_id": 30249,
        "name": "FENGYUN 1C DEB",
        "group": "fengyun-1c-debris",
        "lat": 54.12257419819265,
        "lon": 137.93568519131532,
        "alt_km": 677.2365862778097,
        "timestamp": "2025-12-12T03:50:52.692114+00:00",
        "meta_object_name": "FENGYUN 1C DEB",
        "meta_object_id": "1999-025XJ",
        "meta_epoch": "2025-12-11T09:36:49.177152",
        "meta_mean_motion": 14.5760716,
        "meta_eccentricity": 0.00264704,
        "meta_inclination": 98.9591,
        "meta_ra_of_asc_node": 149.7167,
        "meta_arg_of_pericenter": 46.1318,
        "meta_mean_anomaly": 344.4571,
        "meta_ephemeris_type": 0,
        "meta_classification_type": "U",
        "meta_norad_cat_id": 30249,
        "meta_element_set_no": 999,
        "meta_rev_at_epoch": 97544,
        "meta_bstar": 0.0071653374,
        "meta_mean_motion_dot": 0.000329,
        "meta_mean_motion_ddot": 0,
        "tle_line1": "1 30249U 99025XJ  25345.40056918  .00032900  00000+0  71653-2 0  9992",
        "tle_line2": "2 30249  98.9591 149.7167 0026470  46.1318 344.4571 14.57607160975442"
      },
      "geometry": {
        "type": "Point",
        "coordinates": [
          137.93568519131532,
          54.12257419819265
        ]
      }
    }
  ]
}